[{"OBJECT_NAME":"STARLINK-31027","OBJECT_ID":"2024-002R","EPOCH":"2026-03-09T22:00:01.999584","MEAN_MOTION":15.45998689,"ECCENTRICITY":0.00079886,"INCLINATION":53.1522,"RA_OF_ASC_NODE":225.4344,"ARG_OF_PERICENTER":289.077,"MEAN_ANOMALY":243.8971,"EPHEMERIS_TYPE":0,"CLASSIFICATION_TYPE":"U","NORAD_CAT_ID":58720,"ELEMENT_SET_NO":999,"REV_AT_EPOCH":583,"BSTAR":0.0053254112,"MEAN_MOTION_DOT":0.00273248,"MEAN_MOTION_DDOT":0},{"OBJECT_NAME":"ICEYE-X5","OBJECT_ID":"2019-038C","EPOCH":"2026-03-10T00:10:40.445184","MEAN_MOTION":15.47605863,"ECCENTRICITY":0.00060957,"INCLINATION":97.8842,"RA_OF_ASC_NODE":114.3267,"ARG_OF_PERICENTER":240.5643,"MEAN_ANOMALY":119.4998,"EPHEMERIS_TYPE":0,"CLASSIFICATION_TYPE":"U","NORAD_CAT_ID":44389,"ELEMENT_SET_NO":999,"REV_AT_EPOCH":36758,"BSTAR":0.00078999629,"MEAN_MOTION_DOT":0.00040808,"MEAN_MOTION_DDOT":0}]
